{"type":"Feature","id":"way/475356128","properties":{"addr:city":"Bebra","addr:country":"DE","addr:housenumber":"5","addr:postcode":"36179","addr:street":"Hof Vockerode","addr:suburb":"Imshausen","brand:website":"https://shop.tannenhof-imshausen.de","contact:phone":"+49 6622 6036183","description":"Ökologischer Familienbetrieb mit Hofladen. Einsatz von Zugpferden","description:de":"Ökologischer Familienbetrieb mit Hofladen. Einsatz von Zugpferden","description:en":"Family-driven organic farm with farm-shop. Use of draft-horses.","landuse":"farmyard","name":"Biolandbetrieb Tannenhof","opening_hours":"Mo-Fr 14:30-15:00, Th 18:30-19:00; Sa 11:30-12:00; PH off","operator":"Familie Kayßer","organic":"only","organic:label":"Bioland","produce":"cereal;potatoes;herbs;spices;vegetables;line_seeds","shop":"farm","short_name":"Tannenhof Imshausen","source":"https://tannenhof-imshausen.de/","source:date":"2022-12-21","website":"https://tannenhof-imshausen.de/","id":"way/475356128"},"geometry":{"type":"Point","coordinates":[9.8577302,51.0057977]}}