{"type":"Feature","id":"way/169135462","properties":{"addr:city":"Biebergem√ºnd","addr:country":"DE","addr:housenumber":"13","addr:postcode":"63599","addr:street":"Elsebachweg","addr:suburb":"Bieber","building":"retail","building:levels":"1","mobile":"+49 170 4765268","name":"Beck's Hofladen","opening_hours":"Mo-Fr 10:00-12:00; Mo,Tu,Th,Fr 15:00-18:00; We 19:00-20:30; Sa 10:00-16:00","organic":"yes","payment:cash":"yes","payment:debit_cards":"yes","phone":"+49 6050 2777","post_office":"post_partner","post_office:brand":"DPD Paketshop;Hermes PaketShop","post_office:brand:wikidata":"Q541030;Q105702843","post_office:opening_hours":"Mo-Fr 10:00-12:00; Mo,Tu,Th,Fr 15:00-18:00; We 19:00-20:30; Sa 10:00-16:00","post_office:parcel_from":"DPDgroup;Hermes Group","post_office:parcel_pickup":"DPDgroup;Hermes Group","post_office:parcel_to":"DPDgroup;Hermes Group","post_office:service_provider":"DPDgroup;Hermes Group","roof:levels":"1","roof:orientation":"along","roof:shape":"gabled","shop":"farm","website":"https://becks-hofladen.business.site/","id":"way/169135462"},"geometry":{"type":"Point","coordinates":[9.3485608,50.1609061]}}