{"type":"Feature","id":"way/182587858","properties":{"addr:city":"Heidelberg","addr:housenumber":"35","addr:postcode":"69121","addr:street":"Wiesenweg","air_conditioning":"yes","building":"house","building:levels":"1","check_date":"2023-06-10","check_date:opening_hours":"2023-12-29","contact:email":"peter@schlicksupp.de","contact:fax":"+49 (0)6221 419784","contact:phone":"+49 6221 419781","contact:website":"http://www.gemuesebau-schlicksupp.de/","currency:EUR":"yes","internet_access":"no","level":"0","name":"Schlicksupp","opening_hours":"Mo-Fr 08:00-19:00; Sa 08:00-13:00","payment:mastercard":"yes","payment:visa":"yes","roof:levels":"2","second_hand":"no","shop":"farm","source":"local knowledge","source:addr":"survey","stroller":"yes","toilets:wheelchair":"no","website":"http://www.gemuesebau-schlicksupp.de/","wheelchair":"yes","wheelchair:description":"Ebenerdiger Zugang mit leichter Steigung am Eingang.","id":"way/182587858"},"geometry":{"type":"Point","coordinates":[8.6781135,49.4330259]}}