{"type":"Feature","id":"node/7385333503","properties":{"addr:city":"Vouxey","addr:housenumber":"25","addr:postcode":"88170","addr:street":"Rue du Vendrillon","description":"Produits de la ferme : petits fruits, sirop, confitures et jus de fruits. Spécialité : nombreuses variétés de fraises plein champ, asperges. D'avril à octobre, ouvert tous les jours de 8h à 12h et de 14h à 19h30. Présents également sur les marchés.","description:covid19":"Commande par téléphone pour légumes et fruits de saison. Asperges à compter de jeudi 16 avril. Hors confinement, produits de la ferme : petits fruits, sirop, confitures et jus de fruits. Spécialité : nombreuses variétés de fraises plein champ, asperges.","name":"Les Petits Fruits de Vouxey","opening_hours":"Apr-Oct 08:00-12:00, 14:00-19:30","opening_hours:covid19":"Mo-Sa 14:00-19:00; Apr 13: off","operator":"Laurence et Philippe HUNZIKER","phone":"+33 6 17 57 02 57","shop":"farm","id":"node/7385333503"},"geometry":{"type":"Point","coordinates":[5.8292154,48.3502219]}}