{"type":"Feature","id":"node/9379021084","properties":{"addr:city":"Brandenberg","addr:housenumber":"41f","addr:postcode":"6234","addr:street":"Aschau","craft":"beekeeper","description":"Alles rund um die Biene. \n\nDer Onlineshop für Bienenprodukte aller Art kleinen, regionalen Imkerinnen und Imkern.\n\nWir liefern Bienenprodukte wie Bienenhonig, Propolis, Bienenwachs, Blütenpollen, Kosmetika, Pflegeprodukte, Honigwein, Honigschnaps, Honigko","image":"https://www.google.at/maps/uv?pb=!1s0x47762b4f2c2131af%3A0xd09cceb6e942f145!3m1!7e115!4shttps%3A%2F%2Flh5.googleusercontent.com%2Fp%2FAF1QipMjbohLoA8aWpQQNVZpCpTbE_LHNELs-xOl2H2j%3Dw406-h240-k-no!5srund%20um%20die%20biene%20-%20Google%20Suche!15sCgIgAQ&im","name":"Rund um die Biene","opening_hours":"24/7","operator":"Rund um die Biene e.U.","product":"bienenprodukte;imkereibedarf;honey;beekeeping_supplies","shop":"honey;beekeeping_supplies","website":"https://www.rund-um-die-biene.at","id":"node/9379021084"},"geometry":{"type":"Point","coordinates":[11.8927842,47.5096503]}}