{"type":"Feature","id":"way/24323859","properties":{"addr:city":"Budapest","addr:country":"HU","addr:housenumber":"1-3","addr:postcode":"1093","addr:street":"Vámház körút","alt_name":"Nagyvásárcsarnok","alt_name:de":"Große Markthalle","alt_name:en":"Central Market Hall","amenity":"marketplace","building":"retail","building:levels":"2","contact:facebook":"Nagycsarnok","email":"titkarsag@bvcs.hu","name":"Központi Vásárcsarnok","name:cs":"Velká tržnice","name:de":"Zentrale Markthalle","name:en":"Great Market Hall","name:hu":"Központi Vásárcsarnok","name:it":"Mercato centrale","name:ko":"그레이트 마켓 홀(중앙시장)","name:ru":"Центральный рынок","name:zh":"布達佩斯中央市場","opening_hours":"Mo 06:00-17:00; Tu-Fr 06:00-18:00; Sa 06:00-15:00; PH off","phone":"+36 1 366 3300","roof:shape":"gabled","tourism":"attraction","website":"https://piaconline.hu/en/central-market-hall/","wheelchair":"yes","wikidata":"Q195344","wikipedia":"hu:Központi Vásárcsarnok","id":"way/24323859"},"geometry":{"type":"Point","coordinates":[19.0588786,47.4865909]}}