{"type":"Feature","id":"node/4955560564","properties":{"addr:city":"Eptingen","addr:housenumber":"173","addr:postcode":"4458","addr:street":"Dangern","description":"Seit 1993 sind wir stolze Besitzer der Bio-Knospe. Wir verkaufen regelmässig unser feines Natura Beef aus Mutterkuhhaltung. Das Fleisch stammt von glücklichen Tieren, welche von Geburt an zusammen mit ihren Müttern im Freilaufstall & auf der Weide leben.","email":"biohofdangern@bluewin.ch","name":"Hof Dangern","note":"BIO Natura-Beef: Erhältlich in Mischpaketen à 10 oder 20 kg. Darin enthalten sind: Braten, Siedfleisch, Haxen, Minutenplätzli, Saftplätzli, Voressen, Geschnetzteltes, Hackfleisch, Entrecôte, Huftsteak, Hohrückensteak, Filet. Swiss Tavolata Gästebewirtung\n","opening_hours":"direkt ab Hof, Voranmeldung erwünscht.","operator":"Anita und Christian Rudin-Thommen","organic":"yes","phone":"+41 62 299 15 97","shop":"farm","source":"https://www.knospehof.ch/bio/bio-hof-dangern  https://www.baselland-shop.ch/users/bio-hof-dangern-steinmühle-thommen","id":"node/4955560564"},"geometry":{"type":"Point","coordinates":[7.8125801,47.3852293]}}