{"type":"Feature","id":"node/4955620513","properties":{"addr:city":"Eptingen","addr:country":"CH","addr:housenumber":"131","addr:postcode":"4458","addr:street":"Dangern","email":"dangern@bluewin.ch","name":"Steinmühle Thommen - Bio-UrDinkel traditionell gemahlen","note":"In der Steinmühle Thommen wird Bio-UrDinkel von A-Z verarbeitet. Es werden diverse Bio-UrDinkel-Mehlsorten, Schrot & Griess mit der Steinmühle gemahlen, es gibt selbst produzierte Teigwaren & Bio-UrDinkel-Kernotto, Steinmühle-Vorführungen, Apéros.","opening_hours":"\"Telefonische Voranmeldung erwünscht\"","operator":"Brigitte und Werner Thommen-Huber","organic":"yes","phone":"+41 62 299 17 61","produce":"In der Steinmühle Thommen wird Bio-UrDinkel von A-Z verarbeitet. Es werden diverse Bio-UrDinkel-Mehlsorten, Schrot & Griess mit der Steinmühle gemahlen, es gibt selbst produzierte Teigwaren & Bio-UrDinkel-Kernotto, Steinmühle-Vorführungen, Apéros.","shop":"farm","source":"https://www.knospehof.ch/bio/steinmuhle-thommen","website":"https://www.urdinkel.ch/","id":"node/4955620513"},"geometry":{"type":"Point","coordinates":[7.8128605,47.3854809]}}