{"type":"Feature","id":"node/4959787154","properties":{"addr:city":"Winznau","addr:country":"CH","addr:housenumber":"4","addr:postcode":"4652","addr:street":"Dammstrasse","email":"grob-gemuesebau@bluewin.ch","name":"Gemüsenbau Grob","opening_hours":"Hofladen Lostorf: Mo+Hofladen Lostorf Hauptstrasse 2: Mo+ Mi: 10-12 Uhr und 15.30-18.30 Uhr, Sa: 8-16 Uhr. Hofladen Winznau Dammstrasse 4: Fr: 15-18 Uhr. Wochenmarkt Olten Kirchgasse: Do: 7-11 Uhr. Bifangstrasse Sa: 7-11 Uhr.","operator":"Andreas und Monika Grob","organic":"no","phone":"+41 62 295 43 40","produce":"Gemüse, Spargeln, Kräuter, Gewürze, Kartoffeln, Aepfel, Birnen, Aprikosen, Kirschen, Zwetschgen, Beeren, Süssmost, Spirituosen, Honig, Konfitüren, Blumen, Eier, Trockenwürste, Mostbröckli, Geflügel-Poulet geräuchert, Fisch geräuchert, Milchprodukte.","shop":"farm","source":"https://www.hoflädeli.ch/standort/grob-gemuesebau","website":"https://www.grob-gemuesebau.ch/","id":"node/4959787154"},"geometry":{"type":"Point","coordinates":[7.9255458,47.3637406]}}