{"type":"Feature","id":"way/101200681","properties":{"amenity":"marketplace","architect":"Richard Plüddemann;Heinrich Küster","building":"retail","building:material":"brick","heritage":"2","heritage:operator":"nid","historic":"building","image":"https://commons.wikimedia.org/wiki/File:Wroclaw_Hala_Targowa_plNankera.jpg","image:0":"https://photos.app.goo.gl/NmVAmxSHMc6Knegx9","name":"Hala Targowa","name:de":"Markthalle","name:en":"Wrocław Market Hall","name:fr":"Marché couvert de Wrocław","name:pl":"Hala Targowa","name:ru":"Вроцлавский крытый рынок","opening_hours":"Mo-Sa 08:00-18:30","operator":"Tradycja i Jakość Sp. z o.o.","ref:nid":"A-598752 401/Wm z 13.04.1979","start_date":"1908","url":"https://fotopolska.eu/Wroclaw_Hala_targowa,120,48","url:0":"https://polska-org.pl/508853,Wroclaw,Hala_targowa_I.html","website":"https://hala-targowa.pl","wikidata":"Q1093429","wikipedia":"pl:Hala Targowa przy ul. Piaskowej we Wrocławiu","id":"way/101200681"},"geometry":{"type":"Point","coordinates":[17.0403126,51.1124376]}}