{"type":"Feature","id":"node/4947581603","properties":{"addr:city":"Aesch","addr:housenumber":"46","addr:postcode":"4147","addr:street":"Neumattstrasse","email":"biokistli@bluewin.ch","name":"Rehaghof","note":"Viele verschiedene Gemüsesorten (Kartoffeln, Kürbis, Lauch, Kabisarten etc.....), Salate je nach Saison: Kopfsalat, Eichblatt, Batavia, Eisberg, Schnittsalat, Rucola, Kresse etc., . Brot und Zopf vom eigenen Weizen. Sonstige Produkte:  Sauerkraut, gekocht","opening_hours":"\"Bio-Kistli-Lieferservice\" ab Hof,  Wöchentl. Lieferung – auf Wunsch  des Kunden. Markt in Aesch: Di + Fr 8.30–12 Uhr bei Metzgerei Schaad (Schürhof) Sa 9-13 Uhr Frischmarkt (Coop),  Ettingen: Sa 8.30-12 Uhr Hauptstrasse, Laufen: Fr 8–12 Uhr Rathausplatz.","operator":"Urs und Evelyne Sprecher-Wenk","organic":"yes","phone":"+41 61 753 98 22","shop":"farm","source":"https://www.knospehof.ch/bio/rehaghof","website":"http://rehaghof.ch/","id":"node/4947581603"},"geometry":{"type":"Point","coordinates":[7.5906914,47.4705469]}}