{"type":"Feature","id":"way/982183443","properties":{"addr:city":"Hazerswoude-Rijndijk","addr:housenumber":"2","addr:postcode":"2394MZ","addr:street":"Spookverlaat","building":"yes","email":"info@boerderijwinkelvanhier.nl","facebook":"https://www.facebook.com/boerderijwinkelVanHier/","instagram":"https://www.instagram.com/boerderijwinkelvanhier/?fbclid=IwAR0bTpDHo1PUKQHqmOSSPxgVlOcZT6NkdJKvqfvRXfSpnEM3iRe4eRmvzX4","name":"Boerderij winkel VanHier","note":"mainly produce from the near vicinity (as the name already implies)","opening_hours":"We 09:00-16:00, Sa 09:00-16:00, Su 10:00- 15:00","operator":"fam. van der Hulst","organic":"yes","payment:cash":"yes","payment:debit_cards":"yes","phone":"+31 6 34960184","products":"eggs,dairy products,fruit juices,sausages,vegetables,jam and more","ref:bag":"0484100000050634","shop":"farm","source":"BAG;survey","source:date":"2021-09-12","start_date":"2021","twitter":"https://twitter.com/vanhierdichtbij?lang=nl","website":"https://www.boerderijwinkelvanhier.nl/","id":"way/982183443"},"geometry":{"type":"Point","coordinates":[4.6086832,52.1177108]}}