{"type":"Feature","id":"node/9079705574","properties":{"addr:city":"Wildau","addr:housenumber":"1","addr:postcode":"15745","addr:street":"Schwartzkopffstraße","contact:facebook":"https://www.facebook.com/marktschwaermer.wildau","contact:instagram":"https://www.instagram.com/marktschwaermer.wildau","contact:website":"https://www.marktschwaermer-wildau.de","description":"Die Gemeinschaft aus Erzeugerinnen und Erzeugern ebenso wie Verbraucherinnen und Verbrauchern stellt wöchentlich einen Online-Produktkatalog für den nächsten Verteiltermin zusammen.","email":"patrick@marktschwaermer-wildau.de","image":"https://www.marktschwaermer-wildau.de/#jp-carousel-3063","level":"0","name":"Marktschwärmer Wildau","opening_hours":"Th 17:00-18:30","operator":"Patrick Grabasch","organic":"yes","origin":"regional","payment:credit_cards":"yes","payment:paypal":"yes","shop":"farm","stroller":"yes","website":"https://www.marktschwaermer-wildau.de","wheelchair":"yes","zero_waste":"yes","id":"node/9079705574"},"geometry":{"type":"Point","coordinates":[13.6310976,52.3198785]}}